OBJECT_NAME,OBJECT_ID,EPOCH,MEAN_MOTION,ECCENTRICITY,INCLINATION,RA_OF_ASC_NODE,ARG_OF_PERICENTER,MEAN_ANOMALY,EPHEMERIS_TYPE,CLASSIFICATION_TYPE,NORAD_CAT_ID,ELEMENT_SET_NO,REV_AT_EPOCH,BSTAR,MEAN_MOTION_DOT,MEAN_MOTION_DDOT
NUSAT-49 (KLARA DAN VON NEUMANN),2024-149AJ,2026-05-11T18:33:28.584000,15.30230467,.00040314,97.3777,213.3076,75.7904,284.3784,0,U,60500,999,9656,.19736721E-3,.5697E-4,0
FLOCK 4BE-11,2024-149AK,2026-05-11T18:51:04.757472,15.41760761,.00044726,97.3698,215.5505,65.7851,294.3863,0,U,60501,999,9674,.27646813E-3,.11612E-3,0
YAM-7,2024-149AN,2026-05-11T20:40:19.329312,15.31307276,.00048319,97.3785,212.2731,75.0231,285.1545,0,U,60504,999,9649,.15572948E-3,.4632E-4,0
FLOCK 4BE-24,2024-149AP,2026-05-11T18:32:00.665952,15.41709581,.00046023,97.3714,215.7844,73.7187,286.4566,0,U,60505,999,9675,.3041426E-3,.12763E-3,0
LUR-1,2024-149AQ,2026-05-11T22:36:44.773632,15.29621626,.00056137,97.3741,211.0463,81.1300,279.0576,0,U,60506,999,9643,.15788792E-3,.4457E-4,0
TANAGER-1,2024-149AR,2026-05-11T16:33:30.362400,15.44550345,.00055897,97.3211,225.8137,74.0264,286.1600,0,U,60507,999,9740,.19580971E-3,.9008E-4,0
EAGLEEYE,2024-149AS,2026-05-11T18:53:03.784704,15.65048516,.00019943,97.3719,223.2951,56.7431,303.4019,0,U,60508,999,9723,.4996278E-3,.49172E-3,0
FLOCK 4BE-29,2024-149AT,2026-05-11T16:20:10.183488,15.42942731,.00038805,97.3805,217.0404,84.4849,275.6841,0,U,60509,999,9678,.25543824E-3,.11153E-3,0
TRANSPORTER-11 OBJECT AU,2024-149AU,2026-05-11T19:01:52.171680,15.39198516,.00047941,97.3726,215.2535,73.3579,286.8193,0,U,60510,999,9671,.24663279E-3,.9506E-4,0
FLOCK 4BE-2,2024-149AV,2026-05-11T15:56:53.930112,15.48993862,.00036807,97.3820,218.0335,84.0976,276.0694,0,U,60511,999,9684,.56874602E-3,.30757E-3,0
FLOCK 4BE-13,2024-149AW,2026-05-11T11:25:33.070944,15.40896548,.00048286,97.3716,215.5361,57.8671,302.3043,0,U,60512,999,9671,.22742044E-3,.9264E-4,0
FLOCK 4BE-27,2024-149AX,2026-05-11T20:42:57.678048,15.33808534,.00053488,97.3825,213.7157,81.7990,278.3859,0,U,60513,999,9657,.17046899E-3,.5496E-4,0
FLOCK 4BE-9,2024-149AY,2026-05-11T18:32:47.993280,15.39697486,.00040204,97.3789,215.7241,85.8735,274.2970,0,U,60514,999,9671,.28394846E-3,.11139E-3,0
FLOCK 4BE-6,2024-149BA,2026-05-11T18:34:31.814976,15.38575677,.00047759,97.3786,215.1493,82.1257,278.0531,0,U,60516,999,9667,.26246386E-3,.9918E-4,0
FLOCK 4BE-14,2024-149BB,2026-05-11T18:56:46.305312,15.39863852,.00056258,97.3693,215.2728,78.9907,281.1971,0,U,60517,999,9672,.25861464E-3,.10195E-3,0
FLOCK 4BE-1,2024-149BC,2026-05-11T20:12:43.439616,15.41378602,.00051403,97.3778,216.4758,78.5963,281.5861,0,U,60518,999,9677,.28549823E-3,.11844E-3,0
FLOCK 4BE-28,2024-149BD,2026-05-11T21:50:26.911680,15.43632963,.00052098,97.3744,217.1584,73.5350,286.6470,0,U,60519,999,9684,.29126688E-3,.13035E-3,0
IPERDRONE.0,2024-149BE,2026-05-11T18:34:52.117248,15.61839038,.00016903,97.3772,223.3373,46.1605,313.9792,0,U,60520,999,9722,.46360762E-3,.40195E-3,0
TRANSPORTER-11 OBJECT BF,2024-149BF,2026-05-11T18:48:41.571936,15.72351625,.00005541,97.3770,225.3043,349.0894,11.0357,0,U,60521,999,9734,.71933576E-3,.96003E-3,0
CONNECTA IOT-2,2024-149BG,2026-05-11T22:21:45.928512,15.23658459,.00081729,97.3841,210.6354,93.6172,266.6000,0,U,60522,999,9637,.1230583E-3,.2882E-4,0
PTD-R (TYVAK-0127),2024-149BH,2026-05-11T19:37:50.687328,15.87618577,.00011368,97.3765,229.3449,212.0432,148.0771,0,U,60523,999,9763,.55411205E-3,.148729E-2,0
CONNECTA IOT-4,2024-149BJ,2026-05-11T11:08:16.667520,15.40792610,.00062943,97.3794,215.4407,72.2396,287.9537,0,U,60524,999,9667,.28162201E-3,.11458E-3,0
ORESAT0.5,2024-149BK,2026-05-11T18:26:43.646208,15.43717027,.00062417,97.3716,217.2527,61.8508,298.3370,0,U,60525,999,9685,.28139036E-3,.12628E-3,0
DEIMOS,2024-149BL,2026-05-11T18:45:17.395776,15.42925628,.00063899,97.3776,217.4225,67.3038,292.8884,0,U,60526,999,9683,.28265687E-3,.12351E-3,0
CUAVA-2,2024-149BM,2026-05-11T18:55:47.519616,15.35272967,.00079066,97.3725,213.2712,70.4743,289.7354,0,U,60527,999,9658,.2368342E-3,.8038E-4,0
ERNST,2024-149BN,2026-05-11T11:47:40.206048,15.38234928,.00073026,97.3803,214.9654,75.0874,285.1179,0,U,60528,999,9663,.23889246E-3,.8923E-4,0
TORO,2024-149BQ,2026-05-11T22:17:39.163200,14.96285341,.00015897,97.6789,207.2761,95.4710,264.6693,0,U,60530,999,9453,.76219647E-4,.804E-5,0
HYPSO-2,2024-149BR,2026-05-11T14:42:31.383936,14.98604247,.0002125,97.6818,208.4090,113.2203,246.9244,0,U,60531,999,9457,.13752073E-3,.1591E-4,0
LEMU NGE,2024-149BS,2026-05-11T15:18:08.021376,14.94800006,.00025421,97.6847,207.3384,114.2748,245.8738,0,U,60532,999,9449,.12906193E-3,.1348E-4,0
LEMUR-2-STELLA,2024-149BT,2026-05-11T16:02:04.507872,15.10998508,.00019545,97.6731,213.9892,123.5762,236.5654,0,U,60533,999,9498,.36755391E-3,.6074E-4,0
